[
  {
    "OBJECT_NAME": "STARLINK-4311",
    "OBJECT_ID": "22077V",
    "EPOCH": "2025-11-11T05:48:53.298720",
    "MEAN_MOTION": 15.01260738,
    "ECCENTRICITY": 0.0003221,
    "INCLINATION": 97.6027,
    "RA_OF_ASC_NODE": 134.2592,
    "ARG_OF_PERICENTER": 74.8214,
    "MEAN_ANOMALY": 285.3366,
    "EPHEMERIS_TYPE": 0,
    "CLASSIFICATION_TYPE": "U",
    "NORAD_CAT_ID": 53062,
    "ELEMENT_SET_NO": 999,
    "REV_AT_EPOCH": 18314,
    "BSTAR": 0.00010606,
    "MEAN_MOTION_DOT": 1.304e-05,
    "MEAN_MOTION_DDOT": 0.0,
    "TLE_LINE1": "1 53062U 22077V   25315.24228355  .00001304  00000+0  10606-3 0  9994",
    "TLE_LINE2": "2 53062  97.6027 134.2592 0003221  74.8214 285.3366 15.01260738183142",
    "COMMENT": "Grouped by shell and plane from TLE"
  },
  {
    "OBJECT_NAME": "STARLINK-4307",
    "OBJECT_ID": "22077W",
    "EPOCH": "2025-11-11T01:37:20.758368",
    "MEAN_MOTION": 15.05651237,
    "ECCENTRICITY": 0.0002012,
    "INCLINATION": 97.6026,
    "RA_OF_ASC_NODE": 134.2362,
    "ARG_OF_PERICENTER": 76.5316,
    "MEAN_ANOMALY": 283.6135,
    "EPHEMERIS_TYPE": 0,
    "CLASSIFICATION_TYPE": "U",
    "NORAD_CAT_ID": 53063,
    "ELEMENT_SET_NO": 999,
    "REV_AT_EPOCH": 5471,
    "BSTAR": 4.5654e-05,
    "MEAN_MOTION_DOT": 5.98e-06,
    "MEAN_MOTION_DDOT": 0.0,
    "TLE_LINE1": "1 53063U 22077W   25315.06760137  .00000598  00000+0  45654-4 0  9990",
    "TLE_LINE2": "2 53063  97.6026 134.2362 0002012  76.5316 283.6135 15.05651237 54713",
    "COMMENT": "Grouped by shell and plane from TLE"
  },
  {
    "OBJECT_NAME": "STARLINK-4313",
    "OBJECT_ID": "22077X",
    "EPOCH": "2025-11-11T01:53:18.205152",
    "MEAN_MOTION": 15.05668841,
    "ECCENTRICITY": 0.0001816,
    "INCLINATION": 97.6006,
    "RA_OF_ASC_NODE": 134.3106,
    "ARG_OF_PERICENTER": 75.9998,
    "MEAN_ANOMALY": 284.1431,
    "EPHEMERIS_TYPE": 0,
    "CLASSIFICATION_TYPE": "U",
    "NORAD_CAT_ID": 53064,
    "ELEMENT_SET_NO": 999,
    "REV_AT_EPOCH": 18313,
    "BSTAR": 0.00024665,
    "MEAN_MOTION_DOT": 3.502e-05,
    "MEAN_MOTION_DDOT": 0.0,
    "TLE_LINE1": "1 53064U 22077X   25315.07868293  .00003502  00000+0  24665-3 0  9990",
    "TLE_LINE2": "2 53064  97.6006 134.3106 0001816  75.9998 284.1431 15.05668841183132",
    "COMMENT": "Grouped by shell and plane from TLE"
  },
  {
    "OBJECT_NAME": "STARLINK-4312",
    "OBJECT_ID": "22077Y",
    "EPOCH": "2025-11-11T05:38:13.384032",
    "MEAN_MOTION": 15.01262284,
    "ECCENTRICITY": 0.0003131,
    "INCLINATION": 97.6022,
    "RA_OF_ASC_NODE": 134.2502,
    "ARG_OF_PERICENTER": 40.7538,
    "MEAN_ANOMALY": 319.392,
    "EPHEMERIS_TYPE": 0,
    "CLASSIFICATION_TYPE": "U",
    "NORAD_CAT_ID": 53065,
    "ELEMENT_SET_NO": 999,
    "REV_AT_EPOCH": 18314,
    "BSTAR": 3.3632e-05,
    "MEAN_MOTION_DOT": 3.74e-06,
    "MEAN_MOTION_DDOT": 0.0,
    "TLE_LINE1": "1 53065U 22077Y   25315.23487713  .00000374  00000+0  33632-4 0  9992",
    "TLE_LINE2": "2 53065  97.6022 134.2502 0003131  40.7538 319.3920 15.01262284183144",
    "COMMENT": "Grouped by shell and plane from TLE"
  },
  {
    "OBJECT_NAME": "STARLINK-4309",
    "OBJECT_ID": "22077Z",
    "EPOCH": "2025-11-11T02:23:56.435136",
    "MEAN_MOTION": 15.01256153,
    "ECCENTRICITY": 0.0003046,
    "INCLINATION": 97.6018,
    "RA_OF_ASC_NODE": 134.1264,
    "ARG_OF_PERICENTER": 42.0732,
    "MEAN_ANOMALY": 318.0726,
    "EPHEMERIS_TYPE": 0,
    "CLASSIFICATION_TYPE": "U",
    "NORAD_CAT_ID": 53066,
    "ELEMENT_SET_NO": 999,
    "REV_AT_EPOCH": 18312,
    "BSTAR": 0.00049525,
    "MEAN_MOTION_DOT": 6.308e-05,
    "MEAN_MOTION_DDOT": 0.0,
    "TLE_LINE1": "1 53066U 22077Z   25315.09995874  .00006308  00000+0  49525-3 0  9999",
    "TLE_LINE2": "2 53066  97.6018 134.1264 0003046  42.0732 318.0726 15.01256153183126",
    "COMMENT": "Grouped by shell and plane from TLE"
  },
  {
    "OBJECT_NAME": "STARLINK-4325",
    "OBJECT_ID": "22077AB",
    "EPOCH": "2025-11-11T01:45:19.603584",
    "MEAN_MOTION": 15.05648026,
    "ECCENTRICITY": 0.0001523,
    "INCLINATION": 97.6009,
    "RA_OF_ASC_NODE": 134.3012,
    "ARG_OF_PERICENTER": 84.7122,
    "MEAN_ANOMALY": 275.4278,
    "EPHEMERIS_TYPE": 0,
    "CLASSIFICATION_TYPE": "U",
    "NORAD_CAT_ID": 53068,
    "ELEMENT_SET_NO": 999,
    "REV_AT_EPOCH": 18313,
    "BSTAR": 2.9865000000000003e-05,
    "MEAN_MOTION_DOT": 3.7e-06,
    "MEAN_MOTION_DDOT": 0.0,
    "TLE_LINE1": "1 53068U 22077AB  25315.07314356  .00000370  00000+0  29865-4 0  9998",
    "TLE_LINE2": "2 53068  97.6009 134.3012 0001523  84.7122 275.4278 15.05648026183132",
    "COMMENT": "Grouped by shell and plane from TLE"
  },
  {
    "OBJECT_NAME": "STARLINK-4323",
    "OBJECT_ID": "22077AC",
    "EPOCH": "2025-11-11T05:27:33.383808",
    "MEAN_MOTION": 15.01269924,
    "ECCENTRICITY": 0.0002011,
    "INCLINATION": 97.603,
    "RA_OF_ASC_NODE": 134.2365,
    "ARG_OF_PERICENTER": 48.8389,
    "MEAN_ANOMALY": 311.3009,
    "EPHEMERIS_TYPE": 0,
    "CLASSIFICATION_TYPE": "U",
    "NORAD_CAT_ID": 53069,
    "ELEMENT_SET_NO": 999,
    "REV_AT_EPOCH": 18314,
    "BSTAR": 0.00017999000000000002,
    "MEAN_MOTION_DOT": 2.255e-05,
    "MEAN_MOTION_DDOT": 0.0,
    "TLE_LINE1": "1 53069U 22077AC  25315.22746972  .00002255  00000+0  17999-3 0  9997",
    "TLE_LINE2": "2 53069  97.6030 134.2365 0002011  48.8389 311.3009 15.01269924183141",
    "COMMENT": "Grouped by shell and plane from TLE"
  },
  {
    "OBJECT_NAME": "STARLINK-4342",
    "OBJECT_ID": "22077AD",
    "EPOCH": "2025-11-11T02:25:12.605376",
    "MEAN_MOTION": 15.0564778,
    "ECCENTRICITY": 0.0001555,
    "INCLINATION": 97.6028,
    "RA_OF_ASC_NODE": 134.4149,
    "ARG_OF_PERICENTER": 90.4011,
    "MEAN_ANOMALY": 269.7394,
    "EPHEMERIS_TYPE": 0,
    "CLASSIFICATION_TYPE": "U",
    "NORAD_CAT_ID": 53070,
    "ELEMENT_SET_NO": 999,
    "REV_AT_EPOCH": 18314,
    "BSTAR": 5.0220000000000004e-05,
    "MEAN_MOTION_DOT": 6.64e-06,
    "MEAN_MOTION_DDOT": 0.0,
    "TLE_LINE1": "1 53070U 22077AD  25315.10084034  .00000664  00000+0  50220-4 0  9997",
    "TLE_LINE2": "2 53070  97.6028 134.4149 0001555  90.4011 269.7394 15.05647780183146",
    "COMMENT": "Grouped by shell and plane from TLE"
  },
  {
    "OBJECT_NAME": "STARLINK-4328",
    "OBJECT_ID": "22077AE",
    "EPOCH": "2025-11-11T02:21:13.146048",
    "MEAN_MOTION": 15.05651275,
    "ECCENTRICITY": 0.0001826,
    "INCLINATION": 97.6024,
    "RA_OF_ASC_NODE": 134.4015,
    "ARG_OF_PERICENTER": 85.4337,
    "MEAN_ANOMALY": 274.7098,
    "EPHEMERIS_TYPE": 0,
    "CLASSIFICATION_TYPE": "U",
    "NORAD_CAT_ID": 53071,
    "ELEMENT_SET_NO": 999,
    "REV_AT_EPOCH": 18314,
    "BSTAR": 4.6416000000000004e-05,
    "MEAN_MOTION_DOT": 6.09e-06,
    "MEAN_MOTION_DDOT": 0.0,
    "TLE_LINE1": "1 53071U 22077AE  25315.09806882  .00000609  00000+0  46416-4 0  9990",
    "TLE_LINE2": "2 53071  97.6024 134.4015 0001826  85.4337 274.7098 15.05651275183142",
    "COMMENT": "Grouped by shell and plane from TLE"
  },
  {
    "OBJECT_NAME": "STARLINK-4344",
    "OBJECT_ID": "22077AF",
    "EPOCH": "2025-11-11T05:12:40.274784",
    "MEAN_MOTION": 15.05648263,
    "ECCENTRICITY": 0.0001562,
    "INCLINATION": 97.6027,
    "RA_OF_ASC_NODE": 134.4098,
    "ARG_OF_PERICENTER": 85.7312,
    "MEAN_ANOMALY": 274.4093,
    "EPHEMERIS_TYPE": 0,
    "CLASSIFICATION_TYPE": "U",
    "NORAD_CAT_ID": 53072,
    "ELEMENT_SET_NO": 999,
    "REV_AT_EPOCH": 18315,
    "BSTAR": 3.6625e-05,
    "MEAN_MOTION_DOT": 4.68e-06,
    "MEAN_MOTION_DDOT": 0.0,
    "TLE_LINE1": "1 53072U 22077AF  25315.21713281  .00000468  00000+0  36625-4 0  9999",
    "TLE_LINE2": "2 53072  97.6027 134.4098 0001562  85.7312 274.4093 15.05648263183156",
    "COMMENT": "Grouped by shell and plane from TLE"
  },
  {
    "OBJECT_NAME": "STARLINK-4346",
    "OBJECT_ID": "22077AG",
    "EPOCH": "2025-11-11T02:10:35.356800",
    "MEAN_MOTION": 15.15050797,
    "ECCENTRICITY": 0.0008386,
    "INCLINATION": 97.6395,
    "RA_OF_ASC_NODE": 137.0487,
    "ARG_OF_PERICENTER": 303.1527,
    "MEAN_ANOMALY": 56.8899,
    "EPHEMERIS_TYPE": 0,
    "CLASSIFICATION_TYPE": "U",
    "NORAD_CAT_ID": 53073,
    "ELEMENT_SET_NO": 999,
    "REV_AT_EPOCH": 18330,
    "BSTAR": 0.0024987,
    "MEAN_MOTION_DOT": 0.00046955,
    "MEAN_MOTION_DDOT": 0.0,
    "TLE_LINE1": "1 53073U 22077AG  25315.09068700  .00046955  00000+0  24987-2 0  9992",
    "TLE_LINE2": "2 53073  97.6395 137.0487 0008386 303.1527  56.8899 15.15050797183305",
    "COMMENT": "Grouped by shell and plane from TLE"
  },
  {
    "OBJECT_NAME": "STARLINK-4310",
    "OBJECT_ID": "22077AH",
    "EPOCH": "2025-11-11T05:08:41.085888",
    "MEAN_MOTION": 15.05646033,
    "ECCENTRICITY": 0.0001916,
    "INCLINATION": 97.6026,
    "RA_OF_ASC_NODE": 134.4075,
    "ARG_OF_PERICENTER": 83.8954,
    "MEAN_ANOMALY": 276.2491,
    "EPHEMERIS_TYPE": 0,
    "CLASSIFICATION_TYPE": "U",
    "NORAD_CAT_ID": 53074,
    "ELEMENT_SET_NO": 999,
    "REV_AT_EPOCH": 18315,
    "BSTAR": 1.8390000000000002e-05,
    "MEAN_MOTION_DOT": 2.05e-06,
    "MEAN_MOTION_DDOT": 0.0,
    "TLE_LINE1": "1 53074U 22077AH  25315.21436442  .00000205  00000+0  18390-4 0  9990",
    "TLE_LINE2": "2 53074  97.6026 134.4075 0001916  83.8954 276.2491 15.05646033183151",
    "COMMENT": "Grouped by shell and plane from TLE"
  },
  {
    "OBJECT_NAME": "STARLINK-4348",
    "OBJECT_ID": "22077AJ",
    "EPOCH": "2025-11-11T05:22:13.653696",
    "MEAN_MOTION": 15.01262526,
    "ECCENTRICITY": 0.0002114,
    "INCLINATION": 97.6019,
    "RA_OF_ASC_NODE": 134.2188,
    "ARG_OF_PERICENTER": 86.7218,
    "MEAN_ANOMALY": 273.4248,
    "EPHEMERIS_TYPE": 0,
    "CLASSIFICATION_TYPE": "U",
    "NORAD_CAT_ID": 53075,
    "ELEMENT_SET_NO": 999,
    "REV_AT_EPOCH": 18314,
    "BSTAR": 2.5677e-05,
    "MEAN_MOTION_DOT": 2.72e-06,
    "MEAN_MOTION_DDOT": 0.0,
    "TLE_LINE1": "1 53075U 22077AJ  25315.22376914  .00000272  00000+0  25677-4 0  9999",
    "TLE_LINE2": "2 53075  97.6019 134.2188 0002114  86.7218 273.4248 15.01262526183148",
    "COMMENT": "Grouped by shell and plane from TLE"
  }
]